[{"OBJECT_NAME":"OBJECT B","OBJECT_ID":"2024-153B","EPOCH":"2026-03-09T23:15:18.632160","MEAN_MOTION":15.30512917,"ECCENTRICITY":0.00113423,"INCLINATION":97.6622,"RA_OF_ASC_NODE":204.9195,"ARG_OF_PERICENTER":149.8438,"MEAN_ANOMALY":210.3457,"EPHEMERIS_TYPE":0,"CLASSIFICATION_TYPE":"U","NORAD_CAT_ID":60746,"ELEMENT_SET_NO":999,"REV_AT_EPOCH":8476,"BSTAR":0.00066193599,"MEAN_MOTION_DOT":0.00019515,"MEAN_MOTION_DDOT":0},{"OBJECT_NAME":"STARLINK-35727","OBJECT_ID":"2025-247S","EPOCH":"2026-03-09T13:53:38.277600","MEAN_MOTION":15.30173698,"ECCENTRICITY":0.0001461,"INCLINATION":53.1586,"RA_OF_ASC_NODE":192.173,"ARG_OF_PERICENTER":32.0349,"MEAN_ANOMALY":328.074,"EPHEMERIS_TYPE":0,"CLASSIFICATION_TYPE":"U","NORAD_CAT_ID":66281,"ELEMENT_SET_NO":999,"REV_AT_EPOCH":2101,"BSTAR":0.00053868,"MEAN_MOTION_DOT":0.00015616,"MEAN_MOTION_DDOT":0}]
